ONEWEB-0501             
1 54119U 22138G   24063.66512143  .00000011  00000+0 -60376-5 0  9998
2 54119  87.9133 111.2920 0002220  81.3814 278.7570 13.19726035 66601
ONEWEB-0502             
1 54120U 22138H   24063.65089527  .00000021  00000+0  21069-4 0  9999
2 54120  87.9132 111.2855 0002184  88.2528 271.8855 13.19726013 66624
ONEWEB-0503             
1 54121U 22138J   24063.63985400  .00000004  00000+0 -22512-4 0  9999
2 54121  87.9131 111.2948 0002328 104.5976 255.5415 13.19725790 66617
ONEWEB-0504             
1 54122U 22138K   24063.62720986  .00000075  00000+0  15523-3 0  9995
2 54122  87.9133 111.3008 0002358  91.5038 268.6364 13.19725472 66621
ONEWEB-0505             
1 54123U 22138L   24063.62405229  .00000085  00000+0  17925-3 0  9995
2 54123  87.9131 111.2981 0002436  79.8589 280.2818 13.19725375 66600
ONEWEB-0506             
1 54124U 22138M   24063.67458396  .00000029  00000+0  40196-4 0  9999
2 54124  87.9132 111.2848 0002099  89.1464 270.9909 13.19727078 66604
ONEWEB-0507             
1 54125U 22138N   24063.54349890  .00000088  00000+0  18689-3 0  9990
2 54125  87.9141 111.3232 0001968  86.3662 273.7695 13.19727080 66635
ONEWEB-0508             
1 54126U 22138P   24063.69195359  .00000602  00000+0  14713-2 0  9991
2 54126  87.9132 111.2905 0001692  79.3583 280.7740 13.19728859 66634
